$$SOE
2460721.500000000, A.D. 2025-Feb-15 00:00:00.0000, 2.049385120043936E+08, -4.117986376949946E+08, -1.235460062620112E+07,
2460728.500000000, A.D. 2025-Feb-22 00:00:00.0000, 2.144486682548136E+08, -4.075795731313095E+08, -1.205613997291240E+07,
2460735.500000000, A.D. 2025-Mar-01 00:00:00.0000, 2.238523742820402E+08, -4.031582386258317E+08, -1.175169419396493E+07,
2460742.500000000, A.D. 2025-Mar-08 00:00:00.0000, 2.331453797687423E+08, -3.985375755171514E+08, -1.144143652094746E+07,
2460749.500000000, A.D. 2025-Mar-15 00:00:00.0000, 2.423235265668458E+08, -3.937206082048508E+08, -1.112554200151473E+07,
2460756.500000000, A.D. 2025-Mar-22 00:00:00.0000, 2.513827478137198E+08, -3.887104405672685E+08, -1.080418711727548E+07,
2460763.500000000, A.D. 2025-Mar-29 00:00:00.0000, 2.603190682979457E+08, -3.835102546380098E+08, -1.047754971243349E+07,
2460770.500000000, A.D. 2025-Apr-05 00:00:00.0000, 2.691286064031157E+08, -3.781233084071485E+08, -1.014580900699097E+07,
2460777.500000000, A.D. 2025-Apr-12 00:00:00.0000, 2.778075757068388E+08, -3.725529326478885E+08, -9.809145509763807E+06,
2460784.500000000, A.D. 2025-Apr-19 00:00:00.0000, 2.863522860506342E+08, -3.668025276542138E+08, -9.467740886443079E+06,
2460791.500000000, A.D. 2025-Apr-26 00:00:00.0000, 2.947591443553524E+08, -3.608755600962572E+08, -9.121777824567795E+06,
2460798.500000000, A.D. 2025-May-03 00:00:00.0000, 3.030246552989084E+08, -3.547755599776872E+08, -8.771439904571533E+06,
2460805.500000000, A.D. 2025-May-10 00:00:00.0000, 3.111454218879952E+08, -3.485061176897207E+08, -8.416911479079202E+06,
2460812.500000000, A.D. 2025-May-17 00:00:00.0000, 3.191181459634981E+08, -3.420708812056416E+08, -8.058377567410156E+06,
2460819.500000000, A.D. 2025-May-24 00:00:00.0000, 3.269396288167982E+08, -3.354735534726803E+08, -7.696023785879761E+06,
2460826.500000000, A.D. 2025-May-31 00:00:00.0000, 3.346067723386889E+08, -3.287178896929035E+08, -7.330036326876745E+06,
2460833.500000000, A.D. 2025-Jun-07 00:00:00.0000, 3.421165803039699E+08, -3.218076932919497E+08, -6.960601851414114E+06,
2460840.500000000, A.D. 2025-Jun-14 00:00:00.0000, 3.494661574295911E+08, -3.147468112460184E+08, -6.587907132704228E+06,
2460847.500000000, A.D. 2025-Jun-21 00:00:00.0000, 3.566527074239085E+08, -3.075391320395600E+08, -6.212138829798505E+06,
2460854.500000000, A.D. 2025-Jun-28 00:00:00.0000, 3.636735331571702E+08, -3.001885844881742E+08, -5.833483534148142E+06,
2460861.500000000, A.D. 2025-Jul-05 00:00:00.0000, 3.705260374406543E+08, -2.926991352701686E+08, -5.452127773806632E+06,
2460868.500000000, A.D. 2025-Jul-12 00:00:00.0000, 3.772077232285767E+08, -2.850747859731935E+08, -5.068257931841984E+06,
2460875.500000000, A.D. 2025-Jul-19 00:00:00.0000, 3.837161934375548E+08, -2.773195702329748E+08, -4.682060143260911E+06,
2460882.500000000, A.D. 2025-Jul-26 00:00:00.0000, 3.900491505982122E+08, -2.694375510232244E+08, -4.293720194161981E+06,
2460889.500000000, A.D. 2025-Aug-02 00:00:00.0000, 3.962043964079995E+08, -2.614328180775343E+08, -3.903423427133784E+06,
2460896.500000000, A.D. 2025-Aug-09 00:00:00.0000, 4.021798312113227E+08, -2.533094854596970E+08, -3.511354656020865E+06,
2460903.500000000, A.D. 2025-Aug-16 00:00:00.0000, 4.079734534857394E+08, -2.450716893464431E+08, -3.117698102093235E+06,
2460910.500000000, A.D. 2025-Aug-23 00:00:00.0000, 4.135833596284151E+08, -2.367235860055711E+08, -2.722637376940101E+06,
2460917.500000000, A.D. 2025-Aug-30 00:00:00.0000, 4.190077443744223E+08, -2.282693492541902E+08, -2.326355483641192E+06,
2460924.500000000, A.D. 2025-Sep-06 00:00:00.0000, 4.242449004328772E+08, -2.197131663965566E+08, -1.929034623990223E+06,
2460931.500000000, A.D. 2025-Sep-13 00:00:00.0000, 4.292932156735885E+08, -2.110592351250897E+08, -1.530855861111954E+06,
2460938.500000000, A.D. 2025-Sep-20 00:00:00.0000, 4.341511711393241E+08, -2.023117630284142E+08, -1.131999071938887E+06,
2460945.500000000, A.D. 2025-Sep-27 00:00:00.0000, 4.388173409450062E+08, -1.934749665934958E+08, -7.326430321835726E+05,
2460952.500000000, A.D. 2025-Oct-04 00:00:00.0000, 4.432903920509703E+08, -1.845530691622132E+08, -3.329654045259058E+05,
2460959.500000000, A.D. 2025-Oct-11 00:00:00.0000, 4.475690835401306E+08, -1.755502987854123E+08, 6.685732737613469E+04,
2460966.500000000, A.D. 2025-Oct-18 00:00:00.0000, 4.516522656856555E+08, -1.664708862487088E+08, 4.666499307125285E+05,
2460973.500000000, A.D. 2025-Oct-25 00:00:00.0000, 4.555388789513081E+08, -1.573190632585741E+08, 8.662384893208146E+05,
2460980.500000000, A.D. 2025-Nov-01 00:00:00.0000, 4.592279529663408E+08, -1.480990607725264E+08, 1.265450461082511E+06,
2460987.500000000, A.D. 2025-Nov-08 00:00:00.0000, 4.627186055117291E+08, -1.388151075040542E+08, 1.664114721090227E+06,
2460994.500000000, A.D. 2025-Nov-15 00:00:00.0000, 4.660100416673213E+08, -1.294714286599023E+08, 2.062061572057150E+06,
2461001.500000000, A.D. 2025-Nov-22 00:00:00.0000, 4.691015535237048E+08, -1.200722446880570E+08, 2.459122702775031E+06,
2461008.500000000, A.D. 2025-Nov-29 00:00:00.0000, 4.719925203074493E+08, -1.106217688990803E+08, 2.855131201297268E+06,
2461015.500000000, A.D. 2025-Dec-06 00:00:00.0000, 4.746824066459388E+08, -1.011242040953995E+08, 3.249921820672721E+06,
2461022.500000000, A.D. 2025-Dec-13 00:00:00.0000, 4.771707594080712E+08, -9.158374157884586E+07, 3.643331181949019E+06,
2461029.500000000, A.D. 2025-Dec-20 00:00:00.0000, 4.794572066144106E+08, -8.200456151208366E+07, 4.035197677449584E+06,
2461036.500000000, A.D. 2025-Dec-27 00:00:00.0000, 4.815414573441298E+08, -7.239083204035567E+07, 4.425361384541519E+06,
2461043.500000000, A.D. 2026-Jan-03 00:00:00.0000, 4.834233011816738E+08, -6.274670778714068E+07, 4.813664073529631E+06,
2461050.500000000, A.D. 2026-Jan-10 00:00:00.0000, 4.851026073149772E+08, -5.307632840081002E+07, 5.199949244265933E+06,
2461057.500000000, A.D. 2026-Jan-17 00:00:00.0000, 4.865793235196702E+08, -4.338381724188660E+07, 5.584062162822763E+06,
2461064.500000000, A.D. 2026-Jan-24 00:00:00.0000, 4.878534751090620E+08, -3.367328018618514E+07, 5.965849893132926E+06,
2461071.500000000, A.D. 2026-Jan-31 00:00:00.0000, 4.889251638752315E+08, -2.394880454926924E+07, 6.345161321060341E+06,
2461078.500000000, A.D. 2026-Feb-07 00:00:00.0000, 4.897945670844871E+08, -1.421445818793897E+07, 6.721847160786774E+06,
2461085.500000000, A.D. 2026-Feb-14 00:00:00.0000, 4.904619367812111E+08, -4.474288792894768E+06, 7.095759919168130E+06,
2461092.500000000, A.D. 2026-Feb-21 00:00:00.0000, 4.909275997871036E+08, 5.267677205796469E+06, 7.466753829664003E+06,
2461099.500000000, A.D. 2026-Feb-28 00:00:00.0000, 4.911919573103399E+08, 1.500743727649150E+07, 7.834684949682992E+06,
2461106.500000000, A.D. 2026-Mar-07 00:00:00.0000, 4.912554821075364E+08, 2.474101501944435E+07, 8.199411451029036E+06,
2461113.500000000, A.D. 2026-Mar-14 00:00:00.0000, 4.911187159752746E+08, 3.446445966441931E+07, 8.560793658269424E+06,
2461120.500000000, A.D. 2026-Mar-21 00:00:00.0000, 4.907822693538653E+08, 4.417384573245821E+07, 8.918693908357976E+06,
2461127.500000000, A.D. 2026-Mar-28 00:00:00.0000, 4.902468210353331E+08, 5.386527389293678E+07, 9.272976500173364E+06,
2461134.500000000, A.D. 2026-Apr-04 00:00:00.0000, 4.895131173742832E+08, 6.353487205175155E+07, 9.623507710825607E+06,
2461141.500000000, A.D. 2026-Apr-11 00:00:00.0000, 4.885819712774584E+08, 7.317879631141768E+07, 9.970155824540265E+06,
2461148.500000000, A.D. 2026-Apr-18 00:00:00.0000, 4.874542611324406E+08, 8.279323179697466E+07, 1.031279115924759E+07,
2461155.500000000, A.D. 2026-Apr-25 00:00:00.0000, 4.861309297220773E+08, 9.237439336318763E+07, 1.065128608811948E+07,
2461162.500000000, A.D. 2026-May-02 00:00:00.0000, 4.846129831560045E+08, 1.019185261544491E+08, 1.098551505104207E+07,
2461169.500000000, A.D. 2026-May-09 00:00:00.0000, 4.829014899446601E+08, 1.114219059522242E+08, 1.131535453937755E+07,
2461176.500000000, A.D. 2026-May-16 00:00:00.0000, 4.809975805942488E+08, 1.208808394491339E+08, 1.164068303074280E+07,
2461183.500000000, A.D. 2026-May-23 00:00:00.0000, 4.789024477738147E+08, 1.302916654728818E+08, 1.196138095257040E+07,
2461190.500000000, A.D. 2026-May-30 00:00:00.0000, 4.766173449755001E+08, 1.396507574818283E+08, 1.227733089131700E+07,
2461197.500000000, A.D. 2026-Jun-06 00:00:00.0000, 4.741435833527872E+08, 1.489545240607678E+08, 1.258841780910587E+07,
2461204.500000000, A.D. 2026-Jun-13 00:00:00.0000, 4.714825304038155E+08, 1.581994076160226E+08, 1.289452894765057E+07,
2461211.500000000, A.D. 2026-Jun-20 00:00:00.0000, 4.686356099977124E+08, 1.673818841965758E+08, 1.319555370423187E+07,
2461218.500000000, A.D. 2026-Jun-27 00:00:00.0000, 4.656043020451654E+08, 1.764984641028509E+08, 1.349138360753109E+07,
2461225.500000000, A.D. 2026-Jul-04 00:00:00.0000, 4.623901418133681E+08, 1.855456925096270E+08, 1.378191232981206E+07,
2461232.500000000, A.D. 2026-Jul-11 00:00:00.0000, 4.589947191394827E+08, 1.945201499723724E+08, 1.406703570116585E+07,
2461239.500000000, A.D. 2026-Jul-18 00:00:00.0000, 4.554196776354307E+08, 2.034184528438788E+08, 1.434665171920194E+07,
2461246.500000000, A.D. 2026-Jul-25 00:00:00.0000, 4.516667139084918E+08, 2.122372536050882E+08, 1.462066055198802E+07,
2461253.500000000, A.D. 2026-Aug-01 00:00:00.0000, 4.477375768459038E+08, 2.209732410632171E+08, 1.488896452576405E+07,
2461260.500000000, A.D. 2026-Aug-08 00:00:00.0000, 4.436340671786164E+08, 2.296231403824654E+08, 1.515146807470195E+07,
2461267.500000000, A.D. 2026-Aug-15 00:00:00.0000, 4.393580377393221E+08, 2.381837133983403E+08, 1.540807765132102E+07,
2461274.500000000, A.D. 2026-Aug-22 00:00:00.0000, 4.349113936523935E+08, 2.466517604372505E+08, 1.565870176700847E+07,
2461281.500000000, A.D. 2026-Aug-29 00:00:00.0000, 4.302960901653460E+08, 2.550241222707363E+08, 1.590325126054855E+07,
2461288.500000000, A.D. 2026-Sep-05 00:00:00.0000, 4.255141302569619E+08, 2.632976793386362E+08, 1.614163936484113E+07,
$$EOE